[{"OBJECT_NAME":"STARLINK-5803","OBJECT_ID":"2023-042Y","EPOCH":"2026-03-09T09:37:27.894720","MEAN_MOTION":15.02534556,"ECCENTRICITY":0.00013582,"INCLINATION":43.005,"RA_OF_ASC_NODE":57.9458,"ARG_OF_PERICENTER":264.3485,"MEAN_ANOMALY":95.7203,"EPHEMERIS_TYPE":0,"CLASSIFICATION_TYPE":"U","NORAD_CAT_ID":56008,"ELEMENT_SET_NO":999,"REV_AT_EPOCH":16285,"BSTAR":7.871356e-5,"MEAN_MOTION_DOT":8.6e-6,"MEAN_MOTION_DDOT":0},{"OBJECT_NAME":"OBJECT F","OBJECT_ID":"2025-292F","EPOCH":"2026-03-09T22:41:00.950496","MEAN_MOTION":15.06065121,"ECCENTRICITY":0.00151037,"INCLINATION":97.6416,"RA_OF_ASC_NODE":145.7425,"ARG_OF_PERICENTER":346.7214,"MEAN_ANOMALY":13.3613,"EPHEMERIS_TYPE":0,"CLASSIFICATION_TYPE":"U","NORAD_CAT_ID":66998,"ELEMENT_SET_NO":999,"REV_AT_EPOCH":1351,"BSTAR":0.00047210602,"MEAN_MOTION_DOT":6.85e-5,"MEAN_MOTION_DDOT":0}]
